#aV2020  4 23  0  0  0.00000000     288 DD+AD WGS84 FIT  NGA
## 2102 345600.00000000   300.00000000 58962 0.0000000000000
+   32     1  2  3  4  5  6  7  8  9 10 11 12 13 14 15 16 17
+         18 19 20 21 22 23 24 25 26 27 28 29 30 31 32  0  0
+          0  0  0  0  0  0  0  0  0  0  0  0  0  0  0  0  0
+          0  0  0  0  0  0  0  0  0  0  0  0  0  0  0  0  0
+          0  0  0  0  0  0  0  0  0  0  0  0  0  0  0  0  0
++         2  2  2  2  2  2  2  2  2  2  2  2  2  2  2  2  2
++         2  2  2  2  2  2  2  2  2  2  2  2  2  2  2  0  0
++         0  0  0  0  0  0  0  0  0  0  0  0  0  0  0  0  0
++         0  0  0  0  0  0  0  0  0  0  0  0  0  0  0  0  0
++         0  0  0  0  0  0  0  0  0  0  0  0  0  0  0  0  0
%c cc cc ccc ccc cccc cccc cccc cccc ccccc ccccc ccccc ccccc
%c cc cc ccc ccc cccc cccc cccc cccc ccccc ccccc ccccc ccccc
%f  0.0000000  0.000000000  0.00000000000  0.000000000000000
%f  0.0000000  0.000000000  0.00000000000  0.000000000000000
%i    0    0    0    0      0      0      0      0         0
%i    0    0    0    0      0      0      0      0         0
/*      NGA, ST. LOUIS,MO.                                  
/*   EPHEMERIS COMPUTED FROM 2 DAYS OF DATA                 
/*   EPOCHA v5 SMOOTHER                                     
/*   G1762 IERS2010 SATAF SATAPC                            
*  2020  4 23 19 55  0.00000000
P  1  13692.111231  -8649.979079  20760.732306   -365.244941                    
V  1   1640.851901  26852.109219  10328.981884     -0.093106                    
P  2 -13276.199907 -15296.420573 -16575.914327   -444.459194                    
V  2   -325.145734 -22344.545009  20056.923179     -0.063761                    
P  3  23247.364062 -12472.097266   2482.383054   -154.469139                    
V  3  -1275.799753   4056.157398  31706.665262     -0.113052                    
P  4  18588.223299  -4246.170356 -18491.824697    -80.159853                    
V  4  19633.286831  12990.250329  16712.997313     -0.051051                    
P  5 -18652.908458  -3617.547718 -18771.391976    -11.390337                    
V  5  18763.888768 -14249.656036 -15817.455526     -0.006890                    
P  6  -7529.509186 -23397.115352  -9957.714765   -258.532365                    
V  6   1573.901504 -12773.789176  28716.550409     -0.074254                    
P  7   6038.608420 -23756.222005  -9287.446780   -265.391397                    
V  7   3487.182998  12304.453697 -28782.455549     -0.086262                    
P  8  24277.290913   4728.068351  10037.255072    -31.636624                    
V  8  10293.721632   7590.926323 -28271.081308     -0.012615                    
P  9   8397.203988 -12985.039269 -21645.745167   -203.750411                    
V  9  24298.961027  12648.783663   1824.763377     -0.075985                    
P 10  -2051.625837  17534.615725  19858.384423   -319.600346                    
V 10 -21894.912969  12302.975395 -13411.104058     -0.119280                    
P 11  17641.076300   1272.594519  19245.878513   -296.806401                    
V 11  10731.641334  23504.460823 -11416.149934      0.107403                    
P 12 -24167.654141  10110.553455   3569.031551    125.866251                    
V 12   3151.590021  -4382.013829  31820.245947     -0.043445                    
P 13 -22924.468330 -12868.089772   3989.964441      4.508272                    
V 13  -2805.899699  -5030.950036 -31324.420296      0.030755                    
P 14  16408.038782  18709.919581   9887.716450    -17.639782                    
V 14 -11347.589299  -4537.045882  28225.308027      0.025456                    
P 15 -24647.585047  -2025.487541   9866.426886   -235.946641                    
V 15 -10768.410965  -7801.380006 -27252.618883      0.026013                    
P 16  19211.161147   4071.299802 -18309.899675   -150.057100                    
V 16 -19720.395278  11075.676215 -18010.486294     -0.044311                    
P 17  -8214.511145 -18619.643830  17513.525039    253.613866                    
V 17  18828.310820  10118.518174  20030.382020      0.062345                    
P 18  -8086.592527  22292.918552 -11954.684302    166.727050                    
V 18  -2450.933856 -15146.563844 -26622.284156      0.131063                    
P 19 -15270.202632 -18802.598802  10610.411585   -168.071330                    
V 19  12605.013197   6142.384879  28222.567658      0.051071                    
P 20 -11737.578837  20714.725951  11466.119047    527.784974                    
V 20 -13520.164743   6901.133149 -26340.577959     -0.000505                    
P 21  -3615.279429  24740.495430  -8565.100372    -10.328994                    
V 21  -3968.348438 -11558.055270 -28804.082784      0.049291                    
P 22  23090.448913  -6727.004345  11340.647368   -784.157727                    
V 22  -9401.595400  11112.790402  26379.537347      0.007983                    
P 23  12813.554383 -10264.582576 -20592.778033   -119.752972                    
V 23  23766.526088  12751.221532   7885.209004      0.030045                    
P 24 -14664.689989   6978.401097  20765.906760    -12.122174                    
V 24  -3504.604511 -26760.802164   6818.596184     -0.005326                    
P 25 -19429.903314  16954.296014  -5971.257643     -1.121987                    
V 25  -7676.330071   1535.056407  30820.119807      0.026572                    
P 26  10125.685609  11875.066722 -21535.205917    193.246193                    
V 26 -22606.100820  15315.587392  -1967.162481      0.073130                    
P 27  23542.839861  12694.181827   -248.874222   -275.015915                    
V 27  -1056.928296   1674.711231 -31911.287091     -0.103866                    
P 28   2000.272468 -16873.847412  21035.313981    723.052494                    
V 28  22883.954076 -10813.812448 -11025.636273     -0.029819                    
P 29 -11532.183543   9854.831959 -21844.608205    -88.107792                    
V 29 -23206.011821 -14880.529230   5528.237433     -0.090118                    
P 30   -929.761465 -26399.172389   1268.537862   -204.985501                    
V 30   3684.977509  -1584.253434 -31347.278820     -0.084090                    
P 31   8128.118161  22378.806446 -11316.692772    -37.937644                    
V 31  -2694.845426  14503.503338  27283.630064     -0.024726                    
P 32  10082.866043  18377.499554  16476.444483    266.090225                    
V 32 -19203.589852  -8003.979676  20634.729767      0.081736                    
EOF
